#dP2023 10  1  0  0  0.00000000      96 __u+U ITR00 EXT  IAC
## 2282      0.00000000   900.00000000 60218 0.0000000000000
+  120   C06C07C08C09C10C11C12C13C14C16C19C20C21C22C23C24C25
+        C26C27C28C29C30C32C33C34C35C36C37C38C39C40C41C42C43
+        C44C45C46E02E03E04E05E07E08E09E10E11E12E13E14E15E18
+        E19E21E24E25E26E27E30E31E33E34E36G01G02G03G04G05G06
+        G07G08G09G10G11G12G13G14G15G16G17G18G19G20G21G22G23
+        G24G25G26G27G28G29G30G31G32J02J03J04R01R02R03R04R05
+        R07R08R09R11R12R13R14R15R16R17R18R19R20R21R22R24R25
+        R26  0  0  0  0  0  0  0  0  0  0  0  0  0  0  0  0
++         9 10 11  9 10  8  8 11  8 11  7  7 10  8 10  8  9
++         7  8  8  8  9  9  8  8  8  8  9 11 12 11  9  9  9
++        10  8  8  8  8  7  8  8  9  8  8  8  8  8  9  8  8
++         7  8  7  8  8  8  7  8  8  8  8  8  7  8  8  7  8
++         8  7  8  7  9  9  7  8  7  8  8  9  8  8  8  8  7
++         8  8  8  7  9  9  8  9  8 11  9 10 10  8  8  8  8
++         9 10  8  8  9  8  9  8  9  8  8 10  8  7  8  7  9
++         8  0  0  0  0  0  0  0  0  0  0  0  0  0  0  0  0
%c M  cc GPS ccc cccc cccc cccc cccc ccccc ccccc ccccc ccccc
%c cc cc ccc ccc cccc cccc cccc cccc ccccc ccccc ccccc ccccc
%f  0.0000000  0.000000000  0.00000000000  0.000000000000000
%f  0.0000000  0.000000000  0.00000000000  0.000000000000000
%i    0    0    0    0      0      0      0      0         0
%i    0    0    0    0      0      0      0      0         0
/* IAC                                ULTRA-RAPID PREDICTION
/* S/V CLOCKS ARE ALIGNED TO GNSS TIME                      
/* G:C1WC2W R:C1PC2P E:C1XC5X C:C2IC6I J:C1CC2S             
/* PCV:IGS20_2280 OL/AL:FES2004  NONE     YN ORB:CoN CLK:CoN
*  2023 10 01  0 45  0.00000000
PC06 -17071.367232  29680.107126 -24785.176859     36.946223
PC07  -7129.573129  39145.806513 -13542.444158    -87.637798
PC08  -2685.462708  21463.195757  36201.005832    319.652770
PC09 -11323.380575  28432.517931 -28829.176028     99.084847
PC10   -642.372408  41279.170386  -6640.886261   -196.170772
PC11  18356.353362 -20620.394064  -4108.985995    180.171034
PC12  22675.686586  -8985.588490  13617.428287    916.000921
PC13   3911.247739  25096.290861  33863.393122    360.429725
PC14   7150.400708 -20335.840328 -17745.918198    503.127774
PC16 -22721.275785  28982.944067 -20566.659611   -104.637895
PC19   -583.879807  25834.553057  10525.861598   -970.836629
PC20 -11722.355072  13160.770169  21630.447244    240.774958
PC21  16726.003013   8613.235538 -20599.528683   -970.154111
PC22  11510.121903  24335.473745  -7323.173218   -285.192357
PC23 -15290.203420 -16522.127869  16494.866128   -856.632546
PC24  22513.047787  -5481.276918  15562.798597    447.698943
PC25   3773.496530 -15845.799902  22650.467240    222.908099
PC26  27138.521199   6579.835963    221.942464   -185.268289
PC27 -20298.930068   1082.224758 -19137.018973    206.921592
PC28  -8229.086755 -14041.295633 -22662.467212    155.489984
PC29 -10007.901008  22964.488663  12289.610729    181.674961
PC30 -21552.738337  16800.553195  -5696.386814     -5.746805
PC32 -16811.759184  -8635.182332  20539.095677   -528.600467
PC33    497.053554 -25817.148230 -10604.097428   -961.037748
PC34  21137.787815 -17688.838694   4309.919386    271.180050
PC35   8764.498730  13817.740716  22600.057403    535.093594
PC36  -5046.124210  15493.741629 -22629.773439   -200.830208
PC37 -26800.613044  -7706.370760    556.947599   -840.812015
PC38 -12050.181807  19430.542509  35445.542970    108.229062
PC39 -25425.618187  29783.624876 -15915.660095     -5.025484
PC40 -11932.495219  36438.030578 -17206.960066    -38.446081
PC41 -11272.405837 -24661.856953   6650.376163   -875.110388
PC42  12440.911196 -11707.190487 -22036.315871   -533.247707
PC43  10730.901072 -23032.606663 -11527.905785     42.037497
PC44  20229.900467  -1579.102133  19136.448599    247.789407
PC45  15841.416355  16336.372577 -16168.685743    -31.309068
PC46 -21607.769706   6230.671043 -16497.662997    -88.360130
PE02   -843.867946  20793.530574 -21053.402596     66.808115
PE03  -8389.080388  28363.096263  -1016.770695    -60.899687
PE04  -5696.929580 -22968.857699  17780.797562   -224.049834
PE05 -17612.952234  17277.352213  16350.514071     23.276568
PE07  16428.028696   4407.427796 -24226.583811    -78.752920
PE08   5287.855247  23255.724349 -17532.542655   -154.471178
PE09 -16237.301433  -4531.073976  24325.842706   -175.297457
PE10 -20509.131754  -8413.786030 -19612.975196   -567.732632
PE11 -27235.319606  -1741.669260 -11473.118544   3020.862716
PE12 -11375.709462 -13327.629299 -23860.421475   -718.589352
PE13  26920.089998   2144.976440  12128.240268    -19.735001
PE14  14335.164577 -26700.567602   3961.201738    355.655307
PE15  10898.902180  13423.126552  24031.356866    -57.520115
PE18 -17150.199837  15984.733089 -11399.315620    592.410253
PE19  10111.101375 -27781.608470  -1422.172983  -1520.199640
PE21  16520.783535  -6112.516429  23793.130843   -555.729584
PE24 -23348.430120 -13347.967144 -12348.844130   -350.774181
PE25 -16753.797470   5758.883943 -23701.992016     -2.578574
PE26  26649.376233 -10611.592963  -7329.992547    238.048902
PE27  23395.522635  12831.452324  12829.946570   -163.242371
PE30  16051.502769  24159.811005  -5939.352516   -543.129865
PE31 -16394.207115 -24005.210053   5587.880708     -6.406601
PE33  11949.124821 -16622.075361 -21384.460550     -0.046048
PE34 -11222.863090  16702.113469  21697.304435    -69.914928
PE36 -26958.061332  10223.131261   6697.484501   -123.618945
PG01  -3690.404288 -14276.527631 -22441.076121    164.396407
PG02   3843.674165 -15776.105788 -20481.215365   -547.597894
PG03 -10656.283124 -22301.621409 -10013.276985   -105.554933
PG04  -1505.941391 -22733.506630  13553.931968    171.464387
PG05  -1971.304732  17473.091285  19694.256876   -144.763983
PG06 -25957.297527   5747.540092   1243.700638    540.096632
PG07 -20312.974594  -7665.471961  16088.176367     52.683782
PG08   4847.851767 -25590.143379  -4025.961834   -144.868570
PG09  -9258.036807 -15739.329259  19183.872498    -45.130725
PG10  20047.059392   6208.852065 -16292.012126    -55.528117
PG11 -19520.115584  12176.492454  13240.914771   -394.107443
PG12   6514.670687  22737.795761 -12432.460317   -430.792361
PG13 -13413.899317  22602.001703   2713.914308    578.790450
PG14 -20714.245544  -9330.796890 -13873.648629    200.712776
PG15   -780.126843  25985.620511  -5271.325875     82.677027
PG16   8432.522195 -13220.263878  21059.717381   -446.202441
PG17 -15807.932675   1005.021818 -20903.825801    723.872226
PG18  21630.627832   5971.675464  14356.489841   -434.548745
PG19 -17554.108474   9024.039070 -17803.318563    378.761180
PG20 -12136.212063   9925.647914  21462.410109    409.150480
PG21   6605.316587 -15996.034579 -19350.524576    147.791377
PG22 -18225.739308  -3133.321309 -18499.068624    111.557621
PG23  20471.690245  15981.132255  -5993.333118     75.946565
PG24   -638.708708  16484.864770 -21137.665184   -334.074229
PG25  17264.696074  20355.873708  -1230.052346    470.483602
PG26  16278.452529  -5112.636297  20306.204899    225.754467
PG27  12788.447841 -21626.466260   7680.687722    -48.068047
PG28  25983.787418  -5418.218306  -1018.967279    -17.792576
PG29   7638.412356  16083.022001  19629.908985   -609.762591
PG30 -25666.119341   -590.580301   7447.307408   -482.911250
PG31  23306.901927 -10093.111991   8275.079891   -224.079206
PG32  16454.249800  -5701.688538 -19813.115382   -566.099567
PJ02 -21479.170218  20479.006194 -25358.198272     -4.889185
PJ03 -30447.527066  28476.423565  11369.547667     -3.939769
PJ04 -26456.983246  27723.356989  23518.548241     70.873354
PR01   8504.370446 -12729.035057 -20411.899092     66.748569
PR02   1429.495443 -24586.889596  -6463.989594    -22.407438
PR03  -6797.530332 -22017.901101  10908.519852     86.224087
PR04 -10709.283292  -7523.856100  21912.338910    204.992094
PR05  -9117.379011  11094.728986  21093.853351    119.867173
PR07   7034.839898  21652.179008 -11529.040633     65.825801
PR08  10856.403411   7316.725959 -21847.429629    -72.756671
PR09    124.716008  12191.623437 -22375.122798    145.163710
PR11  23516.054213   9453.298370   2814.490760   -180.849565
PR12  16761.105096  -2204.309382  19135.237088     31.854860
PR13   2059.358817 -11132.152096  22847.762522    -39.756439
PR14 -16514.256504 -14591.601549  12879.487423     25.345721
PR15 -23514.823857  -8981.949481  -4126.802460     85.744255
PR16 -16937.851551   1974.047567 -18971.641029     19.204980
PR17  -4889.374275  -9436.251661 -23178.786230     21.754264
PR18 -18002.404929   2163.342763 -17942.603236    104.591128
PR19 -22374.430166  11166.166768  -4997.709048   -249.221121
PR20 -12991.500042  15880.064317  15187.557074   -100.967242
PR21   5704.757425   8807.541833  23251.985132    -42.081381
PR22  18745.960093  -1980.140916  17210.310812     86.589708
PR24  11738.414455 -16543.756058 -15462.899322    -26.451411
PR25   4689.485353   9880.763713  23050.503496     30.323143
PR26  10878.362995   7679.549396 -21737.706561    -22.170872
EOF
